
# Worst residual: 18.12 km
# MJD 57098.000000 (2015 Mar 17  0:00)
2010-050B = RV223A9 = Chang'e 2 booster
1 37175U 10050B   15076.49922241  .00000000  00000-0  00000-0 2  4640
2 37175 044.0173 233.5939 1653128 299.9093 137.0255 00.04058685    04

# Worst residual: 21.88 km
# MJD 57099.000000 (2015 Mar 18  0:00)
2010-050B = RV223A9 = Chang'e 2 booster
1 37175U 10050B   15077.49922241  .00000000  00000-0  00000-0 2  4641
2 37175 044.0238 233.4351 1615585 299.4075 152.6686 00.04047973    02

# Worst residual: 28.73 km
# MJD 57100.000000 (2015 Mar 19  0:00)
2010-050B = RV223A9 = Chang'e 2 booster
1 37175U 10050B   15078.49922241  .00000000  00000-0  00000-0 2  4642
2 37175 044.0675 233.1935 1581838 298.6215 168.6358 00.04036139    07

# Worst residual: 40.80 km
# MJD 57101.000000 (2015 Mar 20  0:00)
2010-050B = RV223A9 = Chang'e 2 booster
1 37175U 10050B   15079.49922241  .00000000  00000-0  00000-0 2  4643
2 37175 044.1911 232.8217 1546254 297.3969 185.1761 00.04018836    01

# Worst residual: 72.98 km
# MJD 57102.000000 (2015 Mar 21  0:00)
2010-050B = RV223A9 = Chang'e 2 booster
1 37175U 10050B   15080.49922241  .00000000  00000-0  00000-0 2  4645
2 37175 044.4841 232.2587 1486278 295.0835 203.0357 00.03979120    08

# Worst residual: 168.39 km
# MJD 57103.000000 (2015 Mar 22  0:00)
2010-050B = RV223A9 = Chang'e 2 booster
1 37175U 10050B   15081.49922241  .00000000  00000-0  00000-0 2  4646
2 37175 045.1189 231.4495 1338609 286.7429 227.4920 00.03848338    02

# Worst residual: 296.89 km
# MJD 57104.000000 (2015 Mar 23  0:00)
2010-050B = RV223A9 = Chang'e 2 booster
1 37175U 10050B   15082.49922241  .00000000  00000-0  00000-0 2  4647
2 37175 045.3261 231.2269 1263424 245.0755 285.5125 00.03363520    01

# Worst residual: 180.53 km
# MJD 57105.000000 (2015 Mar 24  0:00)
2010-050B = RV223A9 = Chang'e 2 booster
1 37175U 10050B   15083.49922241  .00000000  00000-0  00000-0 2  4648
2 37175 043.3219 232.1709 1777186 221.1714 322.3599 00.02955652    03

# Worst residual: 55.29 km
# MJD 57106.000000 (2015 Mar 25  0:00)
2010-050B = RV223A9 = Chang'e 2 booster
1 37175U 10050B   15084.49922241  .00000000  00000-0  00000-0 2  4649
2 37175 042.1762 232.3512 1868243 221.5214 333.2017 00.02920565    02

# Worst residual: 32.98 km
# MJD 57107.000000 (2015 Mar 26  0:00)
2010-050B = RV223A9 = Chang'e 2 booster
1 37175U 10050B   15085.49922241  .00000000  00000-0  00000-0 2  4640
2 37175 041.7468 232.2561 1859667 223.4203 342.4103 00.02937084    04

# Worst residual: 22.85 km
# MJD 57108.000000 (2015 Mar 27  0:00)
2010-050B = RV223A9 = Chang'e 2 booster
1 37175U 10050B   15086.49922241  .00000000  00000-0  00000-0 2  4641
2 37175 041.5682 232.1371 1842213 225.1852 351.8097 00.02953139    01

# Worst residual: 18.67 km
# MJD 57109.000000 (2015 Mar 28  0:00)
2010-050B = RV223A9 = Chang'e 2 booster
1 37175U 10050B   15087.49922241  .00000000  00000-0  00000-0 2  4642
2 37175 041.4870 232.0359 1829229 226.7278 001.4508 00.02961948    07

# Worst residual: 17.33 km
# MJD 57110.000000 (2015 Mar 29  0:00)
2010-050B = RV223A9 = Chang'e 2 booster
1 37175U 10050B   15088.49922241  .00000000  00000-0  00000-0 2  4643
2 37175 041.4401 231.9325 1825294 228.1339 011.2128 00.02961700    03

# Worst residual: 17.84 km
# MJD 57111.000000 (2015 Mar 30  0:00)
2010-050B = RV223A9 = Chang'e 2 booster
1 37175U 10050B   15089.49922241  .00000000  00000-0  00000-0 2  4644
2 37175 041.4139 231.8130 1828830 229.5596 020.9171 00.02953649    01

# Worst residual: 19.53 km
# MJD 57112.000000 (2015 Mar 31  0:00)
2010-050B = RV223A9 = Chang'e 2 booster
1 37175U 10050B   15090.49922241  .00000000  00000-0  00000-0 2  4646
2 37175 041.4082 231.6517 1836725 231.0897 030.4630 00.02939590    04

# Worst residual: 24.00 km
# MJD 57113.000000 (2015 Apr  1  0:00)
2010-050B = RV223A9 = Chang'e 2 booster
1 37175U 10050B   15091.49922241  .00000000  00000-0  00000-0 2  4647
2 37175 041.4393 231.4181 1844087 232.7205 039.8565 00.02922532    03

# Worst residual: 32.26 km
# MJD 57114.000000 (2015 Apr  2  0:00)
2010-050B = RV223A9 = Chang'e 2 booster
1 37175U 10050B   15092.49922241  .00000000  00000-0  00000-0 2  4648
2 37175 041.5425 231.0886 1842944 234.3010 049.2888 00.02907791    03

# Worst residual: 49.92 km
# MJD 57115.000000 (2015 Apr  3  0:00)
2010-050B = RV223A9 = Chang'e 2 booster
1 37175U 10050B   15093.49922241  .00000000  00000-0  00000-0 2  4649
2 37175 041.7930 230.6097 1831335 235.9691 058.7282 00.02894532    00

# Worst residual: 95.82 km
# MJD 57116.000000 (2015 Apr  4  0:00)
2010-050B = RV223A9 = Chang'e 2 booster
1 37175U 10050B   15094.49922241  .00000000  00000-0  00000-0 2  4640
2 37175 042.4011 229.8667 1790332 237.8170 068.3949 00.02885752    06

# Worst residual: 251.53 km
# MJD 57117.000000 (2015 Apr  5  0:00)
2010-050B = RV223A9 = Chang'e 2 booster
1 37175U 10050B   15095.49922241  .00000000  00000-0  00000-0 2  4641
2 37175 044.0349 228.6240 1615359 237.0639 082.5134 00.02926905    09

# Worst residual: 393.87 km
# MJD 57118.000000 (2015 Apr  6  0:00)
2010-050B = RV223A9 = Chang'e 2 booster
1 37175U 10050B   15096.49922241  .00000000  00000-0  00000-0 2  4642
2 37175 046.1118 227.6790 1300926 204.2922 134.9714 00.03240488    09

# Worst residual: 124.33 km
# MJD 57119.000000 (2015 Apr  7  0:00)
2010-050B = RV223A9 = Chang'e 2 booster
1 37175U 10050B   15097.49922241  .00000000  00000-0  00000-0 2  4643
2 37175 045.0252 227.8520 1658086 179.2132 178.1412 00.03504544    07

# Worst residual: 56.31 km
# MJD 57120.000000 (2015 Apr  8  0:00)
2010-050B = RV223A9 = Chang'e 2 booster
1 37175U 10050B   15098.49922241  .00000000  00000-0  00000-0 2  4644
2 37175 044.1597 227.8198 1841193 175.4390 196.4459 00.03581719    00

# Worst residual: 30.90 km
# MJD 57121.000000 (2015 Apr  9  0:00)
2010-050B = RV223A9 = Chang'e 2 booster
1 37175U 10050B   15099.49922241  .00000000  00000-0  00000-0 2  4645
2 37175 043.7871 227.7188 1935513 174.4402 211.3214 00.03615228    00

# Worst residual: 20.45 km
# MJD 57122.000000 (2015 Apr 10  0:00)
2010-050B = RV223A9 = Chang'e 2 booster
1 37175U 10050B   15100.49922241  .00000000  00000-0  00000-0 2  4648
2 37175 043.6357 227.6394 2002754 174.0355 225.4680 00.03635517    08
